{
  "type": "FeatureCollection",
  "features": [
    {
      "type": "Feature",
      "properties": {
        "norad_id": 64751,
        "name": "PROGRESS-MS 31",
        "group": "stations",
        "lat": 43.60582895954214,
        "lon": 168.12894554476952,
        "alt_km": 413.866264153673,
        "timestamp": "2025-12-17T10:52:53.122213+00:00",
        "meta_object_name": "PROGRESS-MS 31",
        "meta_object_id": "2025-146A",
        "meta_epoch": "2025-12-16T20:41:13.172928",
        "meta_mean_motion": 15.49626059,
        "meta_eccentricity": 0.00031782,
        "meta_inclination": 51.6308,
        "meta_ra_of_asc_node": 122.0659,
        "meta_arg_of_pericenter": 259.3256,
        "meta_mean_anomaly": 100.7375,
        "meta_ephemeris_type": 0,
        "meta_classification_type": "U",
        "meta_norad_cat_id": 64751,
        "meta_element_set_no": 999,
        "meta_rev_at_epoch": 675,
        "meta_bstar": 0.00014251236,
        "meta_mean_motion_dot": 7.581e-05,
        "meta_mean_motion_ddot": 0,
        "tle_line1": "1 64751U 25146A   25350.86195802  .00007581  00000+0  14251-3 0  9991",
        "tle_line2": "2 64751  51.6308 122.0659 0003178 259.3256 100.7375 15.49626059  6752"
      },
      "geometry": {
        "type": "Point",
        "coordinates": [
          168.12894554476952,
          43.60582895954214
        ]
      }
    },
    {
      "type": "Feature",
      "properties": {
        "norad_id": 64786,
        "name": "TIANZHOU-9",
        "group": "stations",
        "lat": -3.296391449960344,
        "lon": -15.653812044112314,
        "alt_km": 388.1569727321139,
        "timestamp": "2025-12-17T10:52:53.122223+00:00",
        "meta_object_name": "TIANZHOU-9",
        "meta_object_id": "2025-149A",
        "meta_epoch": "2025-12-17T00:08:35.156544",
        "meta_mean_motion": 15.59356604,
        "meta_eccentricity": 0.00077847,
        "meta_inclination": 41.4682,
        "meta_ra_of_asc_node": 350.8038,
        "meta_arg_of_pericenter": 67.2573,
        "meta_mean_anomaly": 292.9088,
        "meta_ephemeris_type": 0,
        "meta_classification_type": "U",
        "meta_norad_cat_id": 64786,
        "meta_element_set_no": 999,
        "meta_rev_at_epoch": 25530,
        "meta_bstar": 0.00024375831,
        "meta_mean_motion_dot": 0.00019519,
        "meta_mean_motion_ddot": 0,
        "tle_line1": "1 64786U 25149A   25351.00596246  .00019519  00000+0  24376-3 0  9999",
        "tle_line2": "2 64786  41.4682 350.8038 0007784  67.2573 292.9088 15.59356604255308"
      },
      "geometry": {
        "type": "Point",
        "coordinates": [
          -15.653812044112314,
          -3.296391449960344
        ]
      }
    },
    {
      "type": "Feature",
      "properties": {
        "norad_id": 65077,
        "name": "CREW DRAGON 11",
        "group": "stations",
        "lat": 43.60582962468136,
        "lon": 168.1289470753873,
        "alt_km": 413.8662640697903,
        "timestamp": "2025-12-17T10:52:53.122233+00:00",
        "meta_object_name": "CREW DRAGON 11",
        "meta_object_id": "2025-166A",
        "meta_epoch": "2025-12-16T20:41:13.172928",
        "meta_mean_motion": 15.49626059,
        "meta_eccentricity": 0.00031782,
        "meta_inclination": 51.6308,
        "meta_ra_of_asc_node": 122.0659,
        "meta_arg_of_pericenter": 259.3256,
        "meta_mean_anomaly": 100.7375,
        "meta_ephemeris_type": 0,
        "meta_classification_type": "U",
        "meta_norad_cat_id": 65077,
        "meta_element_set_no": 999,
        "meta_rev_at_epoch": 214,
        "meta_bstar": 0.00014251236,
        "meta_mean_motion_dot": 7.581e-05,
        "meta_mean_motion_ddot": 0,
        "tle_line1": "1 65077U 25166A   25350.86195802  .00007581  00000+0  14251-3 0  9995",
        "tle_line2": "2 65077  51.6308 122.0659 0003178 259.3256 100.7375 15.49626059  2143"
      },
      "geometry": {
        "type": "Point",
        "coordinates": [
          168.1289470753873,
          43.60582962468136
        ]
      }
    },
    {
      "type": "Feature",
      "properties": {
        "norad_id": 65304,
        "name": "DRAGON CRS-33",
        "group": "stations",
        "lat": 43.60583012353647,
        "lon": 168.1289482233523,
        "alt_km": 413.86626400688056,
        "timestamp": "2025-12-17T10:52:53.122248+00:00",
        "meta_object_name": "DRAGON CRS-33",
        "meta_object_id": "2025-186A",
        "meta_epoch": "2025-12-16T20:41:13.172928",
        "meta_mean_motion": 15.49626059,
        "meta_eccentricity": 0.00031782,
        "meta_inclination": 51.6308,
        "meta_ra_of_asc_node": 122.0659,
        "meta_arg_of_pericenter": 259.3256,
        "meta_mean_anomaly": 100.7375,
        "meta_ephemeris_type": 0,
        "meta_classification_type": "U",
        "meta_norad_cat_id": 65304,
        "meta_element_set_no": 999,
        "meta_rev_at_epoch": 11,
        "meta_bstar": 0.00014251236,
        "meta_mean_motion_dot": 7.581e-05,
        "meta_mean_motion_ddot": 0,
        "tle_line1": "1 65304U 25186A   25350.86195802  .00007581  00000+0  14251-3 0  9990",
        "tle_line2": "2 65304  51.6308 122.0659 0003178 259.3256 100.7375 15.49626059   111"
      },
      "geometry": {
        "type": "Point",
        "coordinates": [
          168.1289482233523,
          43.60583012353647
        ]
      }
    },
    {
      "type": "Feature",
      "properties": {
        "norad_id": 65586,
        "name": "PROGRESS-MS 32",
        "group": "stations",
        "lat": 43.60583045610669,
        "lon": 168.12894898866267,
        "alt_km": 413.866263964941,
        "timestamp": "2025-12-17T10:52:53.122258+00:00",
        "meta_object_name": "PROGRESS-MS 32",
        "meta_object_id": "2025-204A",
        "meta_epoch": "2025-12-16T20:41:13.172928",
        "meta_mean_motion": 15.49626059,
        "meta_eccentricity": 0.00031782,
        "meta_inclination": 51.6308,
        "meta_ra_of_asc_node": 122.0659,
        "meta_arg_of_pericenter": 259.3256,
        "meta_mean_anomaly": 100.7375,
        "meta_ephemeris_type": 0,
        "meta_classification_type": "U",
        "meta_norad_cat_id": 65586,
        "meta_element_set_no": 999,
        "meta_rev_at_epoch": 27,
        "meta_bstar": 0.00014251236,
        "meta_mean_motion_dot": 7.581e-05,
        "meta_mean_motion_ddot": 0,
        "tle_line1": "1 65586U 25204A   25350.86195802  .00007581  00000+0  14251-3 0  9993",
        "tle_line2": "2 65586  51.6308 122.0659 0003178 259.3256 100.7375 15.49626059   270"
      },
      "geometry": {
        "type": "Point",
        "coordinates": [
          168.12894898866267,
          43.60583045610669
        ]
      }
    },
    {
      "type": "Feature",
      "properties": {
        "norad_id": 65616,
        "name": "CYGNUS NG-23",
        "group": "stations",
        "lat": 43.605830788676066,
        "lon": 168.12894975397109,
        "alt_km": 413.86626392299877,
        "timestamp": "2025-12-17T10:52:53.122268+00:00",
        "meta_object_name": "CYGNUS NG-23",
        "meta_object_id": "2025-208A",
        "meta_epoch": "2025-12-16T20:41:13.172928",
        "meta_mean_motion": 15.49626059,
        "meta_eccentricity": 0.00031782,
        "meta_inclination": 51.6308,
        "meta_ra_of_asc_node": 122.0659,
        "meta_arg_of_pericenter": 259.3256,
        "meta_mean_anomaly": 100.7375,
        "meta_ephemeris_type": 0,
        "meta_classification_type": "U",
        "meta_norad_cat_id": 65616,
        "meta_element_set_no": 999,
        "meta_rev_at_epoch": 22,
        "meta_bstar": 0.00014251236,
        "meta_mean_motion_dot": 7.581e-05,
        "meta_mean_motion_ddot": 0,
        "tle_line1": "1 65616U 25208A   25350.86195802  .00007581  00000+0  14251-3 0  9991",
        "tle_line2": "2 65616  51.6308 122.0659 0003178 259.3256 100.7375 15.49626059   229"
      },
      "geometry": {
        "type": "Point",
        "coordinates": [
          168.12894975397109,
          43.605830788676066
        ]
      }
    },
    {
      "type": "Feature",
      "properties": {
        "norad_id": 65729,
        "name": "DRAGONFLY",
        "group": "stations",
        "lat": 48.61810990831401,
        "lon": 175.68291773755374,
        "alt_km": 345.13828233437835,
        "timestamp": "2025-12-17T10:52:53.122278+00:00",
        "meta_object_name": "DRAGONFLY",
        "meta_object_id": "1998-067XH",
        "meta_epoch": "2025-12-16T13:13:48.986688",
        "meta_mean_motion": 15.7319978,
        "meta_eccentricity": 0.00071179,
        "meta_inclination": 51.6242,
        "meta_ra_of_asc_node": 116.2265,
        "meta_arg_of_pericenter": 302.756,
        "meta_mean_anomaly": 57.2752,
        "meta_ephemeris_type": 0,
        "meta_classification_type": "U",
        "meta_norad_cat_id": 65729,
        "meta_element_set_no": 999,
        "meta_rev_at_epoch": 1376,
        "meta_bstar": 0.0010910742,
        "meta_mean_motion_dot": 0.00155828,
        "meta_mean_motion_ddot": 0,
        "tle_line1": "1 65729U 98067XH  25350.55126142  .00155828  00000+0  10911-2 0  9992",
        "tle_line2": "2 65729  51.6242 116.2265 0007117 302.7560  57.2752 15.73199780 13768"
      },
      "geometry": {
        "type": "Point",
        "coordinates": [
          175.68291773755374,
          48.61810990831401
        ]
      }
    }
  ]
}